{
  "type": "FeatureCollection",
  "features": [
    {
      "type": "Feature",
      "properties": {"name": "Vietnam"},
      "geometry": {
        "type": "LineString",
        "coordinates": [
          [102.17, 13.50], [102.14, 13.70], [102.25, 14.45], [102.61, 14.55], [103.50, 14.58],
          [104.70, 14.45], [104.98, 14.00], [105.28, 13.80], [105.80, 12.90], [105.90, 12.10],
          [106.24, 11.60], [106.68, 10.60], [107.10, 9.80], [107.52, 8.60], [107.81, 8.40],
          [108.20, 8.50], [108.42, 9.15], [108.90, 9.85], [109.60, 11.20], [110.12, 12.04],
          [110.50, 12.80], [110.55, 13.50], [110.45, 14.60], [109.90, 15.50], [109.10, 16.30],
          [108.10, 16.80], [107.00, 16.70], [106.30, 16.45], [105.50, 16.85], [104.85, 17.90],
          [104.40, 18.10], [103.70, 18.00], [103.08, 17.40], [102.65, 16.70], [102.17, 13.50]
        ]
      }
    },
    {
      "type": "Feature",
      "properties": {"name": "Thailand"},
      "geometry": {
        "type": "LineString",
        "coordinates": [
          [97.35, 5.65], [98.60, 5.90], [99.15, 6.30], [99.65, 6.50], [100.08, 6.40],
          [100.95, 6.60], [101.50, 6.75], [101.80, 6.50], [102.08, 5.85], [102.14, 5.30],
          [101.80, 4.50], [101.20, 4.80], [100.90, 5.35], [100.50, 5.55], [100.08, 6.40],
          [99.65, 7.05], [99.08, 7.50], [98.70, 8.35], [98.60, 9.60], [98.85, 10.65],
          [99.50, 11.80], [100.30, 12.50], [100.90, 13.20], [101.45, 13.80], [102.10, 14.55],
          [102.61, 14.55], [103.05, 14.52], [103.50, 14.45], [104.00, 14.20], [104.30, 13.65],
          [104.55, 12.95], [104.70, 12.25], [104.80, 11.35], [104.65, 10.65], [104.30, 10.10],
          [103.90, 9.60], [103.50, 8.90], [103.00, 8.40], [102.50, 8.55], [102.08, 8.75],
          [101.50, 8.55], [101.00, 8.80], [100.65, 9.15], [100.30, 9.60], [99.65, 10.20],
          [99.10, 9.85], [98.80, 9.30], [98.60, 8.40], [98.35, 7.40], [97.80, 6.80],
          [97.35, 5.65]
        ]
      }
    },
    {
      "type": "Feature",
      "properties": {"name": "Cambodia"},
      "geometry": {
        "type": "LineString",
        "coordinates": [
          [102.34, 10.50], [102.63, 10.70], [103.15, 11.15], [104.06, 11.55], [104.97, 11.90],
          [105.65, 12.55], [106.25, 13.10], [106.68, 13.52], [107.10, 13.80], [107.35, 14.10],
          [107.50, 14.45], [107.35, 15.20], [106.95, 15.70], [106.45, 16.10], [105.85, 16.35],
          [105.15, 16.25], [104.70, 15.90], [104.35, 15.30], [104.00, 14.80], [103.50, 14.45],
          [102.61, 14.55], [102.25, 14.45], [102.10, 13.80], [101.87, 13.30], [101.70, 12.56],
          [101.85, 12.05], [102.15, 11.50], [102.34, 10.50]
        ]
      }
    },
    {
      "type": "Feature",
      "properties": {"name": "Laos"},
      "geometry": {
        "type": "LineString",
        "coordinates": [
          [100.08, 13.65], [100.60, 14.10], [101.30, 14.70], [102.10, 14.95], [102.65, 15.90],
          [103.08, 17.40], [103.70, 18.00], [104.40, 18.10], [104.85, 17.90], [105.50, 16.85],
          [106.30, 16.45], [106.95, 15.70], [106.45, 16.10], [105.85, 16.35], [105.15, 16.25],
          [104.70, 15.90], [104.35, 15.30], [104.00, 14.80], [103.50, 14.45], [103.05, 14.52],
          [102.61, 14.55], [102.25, 14.45], [102.10, 13.80], [101.87, 13.30], [101.40, 13.10],
          [101.00, 12.85], [100.55, 12.50], [100.08, 13.65]
        ]
      }
    },
    {
      "type": "Feature",
      "properties": {"name": "Myanmar"},
      "geometry": {
        "type": "LineString",
        "coordinates": [
          [92.30, 9.20], [92.80, 9.80], [93.30, 10.50], [94.00, 11.30], [94.75, 12.20],
          [95.30, 13.30], [95.80, 14.80], [96.30, 15.80], [96.80, 16.80], [97.30, 17.50],
          [97.80, 18.30], [98.35, 18.90], [98.80, 19.80], [99.50, 20.60], [100.08, 21.20],
          [101.00, 21.50], [101.80, 21.00], [102.10, 19.90], [102.14, 18.80], [101.80, 17.50],
          [101.30, 16.50], [100.60, 15.40], [100.08, 14.35], [99.65, 13.20], [99.10, 12.20],
          [98.60, 11.30], [98.00, 10.50], [97.35, 9.80], [96.70, 9.30], [96.00, 9.00],
          [95.30, 8.90], [94.60, 9.10], [93.90, 9.50], [92.30, 9.20]
        ]
      }
    },
    {
      "type": "Feature",
      "properties": {"name": "Indonesia"},
      "geometry": {
        "type": "LineString",
        "coordinates": [
          [95.29, -5.70], [95.80, -5.50], [96.80, -5.20], [97.80, -4.50], [98.80, -4.00],
          [99.60, -3.50], [100.80, -3.20], [102.00, -2.80], [103.50, -2.40], [104.50, -1.60],
          [105.80, -1.20], [107.00, -0.50], [108.50, 0.50], [110.00, 1.50], [111.50, 2.30],
          [113.00, 2.80], [114.50, 3.20], [115.80, 3.50], [117.00, 3.20], [118.50, 2.80],
          [119.80, 1.80], [120.80, 0.80], [121.80, -0.50], [122.50, -1.50], [122.80, -2.80],
          [122.60, -4.00], [121.80, -5.30], [120.80, -6.20], [119.80, -7.30], [118.50, -8.20],
          [117.00, -8.80], [115.50, -9.30], [114.00, -9.50], [112.50, -9.40], [110.80, -9.10],
          [109.00, -8.50], [107.50, -7.80], [106.00, -6.80], [104.80, -5.90], [103.50, -5.20],
          [102.00, -4.30], [100.50, -3.50], [99.00, -3.00], [97.50, -2.80], [96.00, -3.20],
          [95.29, -5.70]
        ]
      }
    }
  ]
}
